[
    {
        "Altitude(m)": 622200.074925779,
        "Argument of Periapsis(deg)": 0.0,
        "Eccentricity": 0.0,
        "Inclination(deg)": 60.0,
        "Latitude(deg)": -52.16244914831087,
        "Longitude(deg)": 97.3607568652037,
        "Mean Anomaly(deg)": -65.45450000000002,
        "RAAN(deg)": 245.0,
        "Satellite Name": "Test1 1096",
        "Satellite Number": 1096,
        "Semi-Major Axis(m)": 6980739.136638005,
        "Time(s)": 0
    },
    {
        "Altitude(m)": 622058.2425605477,
        "Argument of Periapsis(deg)": 0.00010418945913296404,
        "Eccentricity": 0.0,
        "Inclination(deg)": 60.0,
        "Latitude(deg)": -51.7991987574877,
        "Longitude(deg)": 98.12881318187323,
        "Mean Anomaly(deg)": -64.83439385453818,
        "RAAN(deg)": 244.99957995086027,
        "Satellite Name": "Test1 1096",
        "Satellite Number": 1096,
        "Semi-Major Axis(m)": 6980739.136638005,
        "Time(s)": 10
    },
    {
        "Altitude(m)": 621913.6769178056,
        "Argument of Periapsis(deg)": 0.0002083789182659281,
        "Eccentricity": 0.0,
        "Inclination(deg)": 60.0,
        "Latitude(deg)": -51.430436806142076,
        "Longitude(deg)": 98.88389079599892,
        "Mean Anomaly(deg)": -64.21428770907633,
        "RAAN(deg)": 244.9991599017205,
        "Satellite Name": "Test1 1096",
        "Satellite Number": 1096,
        "Semi-Major Axis(m)": 6980739.136638005,
        "Time(s)": 20
    },
    {
        "Altitude(m)": 621766.4344369629,
        "Argument of Periapsis(deg)": 0.00031256837739889213,
        "Eccentricity": 0.0,
        "Inclination(deg)": 60.0,
        "Latitude(deg)": -51.05632041416257,
        "Longitude(deg)": 99.62617940346534,
        "Mean Anomaly(deg)": -63.59418156361453,
        "RAAN(deg)": 244.9987398525808,
        "Satellite Name": "Test1 1096",
        "Satellite Number": 1096,
        "Semi-Major Axis(m)": 6980739.136638005,
        "Time(s)": 30
    },
    {
        "Altitude(m)": 621616.5725738397,
        "Argument of Periapsis(deg)": 0.0004167578365318562,
        "Eccentricity": 0.0,
        "Inclination(deg)": 60.0,
        "Latitude(deg)": -50.67700301093624,
        "Longitude(deg)": 100.35587646556402,
        "Mean Anomaly(deg)": -62.974075418152665,
        "RAAN(deg)": 244.99831980344103,
        "Satellite Name": "Test1 1096",
        "Satellite Number": 1096,
        "Semi-Major Axis(m)": 6980739.136638005,
        "Time(s)": 40
    },
    {
        "Altitude(m)": 621464.1497760525,
        "Argument of Periapsis(deg)": 0.0005209472956648203,
        "Eccentricity": 0.0,
        "Inclination(deg)": 60.0,
        "Latitude(deg)": -50.292634308344816,
        "Longitude(deg)": 101.07318515917093,
        "Mean Anomaly(deg)": -62.353969272690826,
        "RAAN(deg)": 244.9978997543013,
        "Satellite Name": "Test1 1096",
        "Satellite Number": 1096,
        "Semi-Major Axis(m)": 6980739.136638005,
        "Time(s)": 50
    },
    {
        "Altitude(m)": 621309.2254579687,
        "Argument of Periapsis(deg)": 0.0006251367547977843,
        "Eccentricity": 0.0,
        "Inclination(deg)": 60.0,
        "Latitude(deg)": -49.90336028831448,
        "Longitude(deg)": 101.778313909141,
        "Mean Anomaly(deg)": -61.73386312722897,
        "RAAN(deg)": 244.99747970516154,
        "Satellite Name": "Test1 1096",
        "Satellite Number": 1096,
        "Semi-Major Axis(m)": 6980739.136638005,
        "Time(s)": 60
    },
    {
        "Altitude(m)": 621151.8599752245,
        "Argument of Periapsis(deg)": 0.0007293262139307483,
        "Eccentricity": 0.0,
        "Inclination(deg)": 60.0,
        "Latitude(deg)": -49.509323203517624,
        "Longitude(deg)": 102.47147598864211,
        "Mean Anomaly(deg)": -61.11375698176716,
        "RAAN(deg)": 244.99705965602183,
        "Satellite Name": "Test1 1096",
        "Satellite Number": 1096,
        "Semi-Major Axis(m)": 6980739.136638005,
        "Time(s)": 70
    },
    {
        "Altitude(m)": 620992.1145988143,
        "Argument of Periapsis(deg)": 0.0008335156730637124,
        "Eccentricity": 0.0,
        "Inclination(deg)": 60.0,
        "Latitude(deg)": -49.11066158989244,
        "Longitude(deg)": 103.15288767273802,
        "Mean Anomaly(deg)": -60.49365083630531,
        "RAAN(deg)": 244.99663960688207,
        "Satellite Name": "Test1 1096",
        "Satellite Number": 1096,
        "Semi-Major Axis(m)": 6980739.136638005,
        "Time(s)": 80
    },
    {
        "Altitude(m)": 620830.0514887865,
        "Argument of Periapsis(deg)": 0.0009377051321966765,
        "Eccentricity": 0.0,
        "Inclination(deg)": 60.0,
        "Latitude(deg)": -48.70751028972242,
        "Longitude(deg)": 103.82276796880286,
        "Mean Anomaly(deg)": -59.87354469084345,
        "RAAN(deg)": 244.99621955774234,
        "Satellite Name": "Test1 1096",
        "Satellite Number": 1096,
        "Semi-Major Axis(m)": 6980739.136638005,
        "Time(s)": 90
    },
    {
        "Altitude(m)": 620665.733667507,
        "Argument of Periapsis(deg)": 0.0010418945913296407,
        "Eccentricity": 0.0,
        "Inclination(deg)": 60.0,
        "Latitude(deg)": -48.30000048409074,
        "Longitude(deg)": 104.48133840848087,
        "Mean Anomaly(deg)": -59.253438545381606,
        "RAAN(deg)": 244.99579950860257,
        "Satellite Name": "Test1 1096",
        "Satellite Number": 1096,
        "Semi-Major Axis(m)": 6980739.136638005,
        "Time(s)": 100
    },
    {
        "Altitude(m)": 620499.2249925575,
        "Argument of Periapsis(deg)": 0.0011460840504626045,
        "Eccentricity": 0.0,
        "Inclination(deg)": 60.0,
        "Latitude(deg)": -47.88825973360309,
        "Longitude(deg)": 105.12882138570416,
        "Mean Anomaly(deg)": -58.6333323999198,
        "RAAN(deg)": 244.99537945946287,
        "Satellite Name": "Test1 1096",
        "Satellite Number": 1096,
        "Semi-Major Axis(m)": 6980739.136638005,
        "Time(s)": 110
    },
    {
        "Altitude(m)": 620330.5901292198,
        "Argument of Periapsis(deg)": 0.0012502735095955685,
        "Eccentricity": 0.0,
        "Inclination(deg)": 60.0,
        "Latitude(deg)": -47.47241202634797,
        "Longitude(deg)": 105.76544006375353,
        "Mean Anomaly(deg)": -58.01322625445795,
        "RAAN(deg)": 244.9949594103231,
        "Satellite Name": "Test1 1096",
        "Satellite Number": 1096,
        "Semi-Major Axis(m)": 6980739.136638005,
        "Time(s)": 120
    },
    {
        "Altitude(m)": 620159.8945226384,
        "Argument of Periapsis(deg)": 0.0013544629687285324,
        "Eccentricity": 0.0,
        "Inclination(deg)": 60.0,
        "Latitude(deg)": -47.05257783213967,
        "Longitude(deg)": 106.39141833564405,
        "Mean Anomaly(deg)": -57.3931201089962,
        "RAAN(deg)": 244.99453936118337,
        "Satellite Name": "Test1 1096",
        "Satellite Number": 1096,
        "Semi-Major Axis(m)": 6980739.136638005,
        "Time(s)": 130
    },
    {
        "Altitude(m)": 619987.2043695647,
        "Argument of Periapsis(deg)": 0.0014586524278614966,
        "Eccentricity": 0.0,
        "Inclination(deg)": 60.0,
        "Latitude(deg)": -46.62887416216054,
        "Longitude(deg)": 107.00697932207049,
        "Mean Anomaly(deg)": -56.773013963534346,
        "RAAN(deg)": 244.9941193120436,
        "Satellite Name": "Test1 1096",
        "Satellite Number": 1096,
        "Semi-Major Axis(m)": 6980739.136638005,
        "Time(s)": 140
    },
    {
        "Altitude(m)": 619812.5865898068,
        "Argument of Periapsis(deg)": 0.0015628418869944607,
        "Eccentricity": 0.0,
        "Inclination(deg)": 60.0,
        "Latitude(deg)": -46.20141463319405,
        "Longitude(deg)": 107.61234542974277,
        "Mean Anomaly(deg)": -56.15290781807254,
        "RAAN(deg)": 244.9936992629039,
        "Satellite Name": "Test1 1096",
        "Satellite Number": 1096,
        "Semi-Major Axis(m)": 6980739.136638005,
        "Time(s)": 150
    },
    {
        "Altitude(m)": 619636.108797309,
        "Argument of Periapsis(deg)": 0.0016670313461274247,
        "Eccentricity": 0.0,
        "Inclination(deg)": 60.0,
        "Latitude(deg)": -45.770309535704655,
        "Longitude(deg)": 108.20773845435582,
        "Mean Anomaly(deg)": -55.53280167261069,
        "RAAN(deg)": 244.99327921376414,
        "Satellite Name": "Test1 1096",
        "Satellite Number": 1096,
        "Semi-Major Axis(m)": 6980739.136638005,
        "Time(s)": 160
    },
    {
        "Altitude(m)": 619457.8392709234,
        "Argument of Periapsis(deg)": 0.0017712208052603888,
        "Eccentricity": 0.0,
        "Inclination(deg)": 60.0,
        "Latitude(deg)": -45.335665905088305,
        "Longitude(deg)": 108.79337821247489,
        "Mean Anomaly(deg)": -54.91269552714894,
        "RAAN(deg)": 244.9928591646244,
        "Satellite Name": "Test1 1096",
        "Satellite Number": 1096,
        "Semi-Major Axis(m)": 6980739.136638005,
        "Time(s)": 170
    },
    {
        "Altitude(m)": 619277.8469248568,
        "Argument of Periapsis(deg)": 0.001875410264393353,
        "Eccentricity": 0.0,
        "Inclination(deg)": 60.0,
        "Latitude(deg)": -44.89758759547826,
        "Longitude(deg)": 109.36948272530003,
        "Mean Anomaly(deg)": -54.29258938168709,
        "RAAN(deg)": 244.99243911548464,
        "Satellite Name": "Test1 1096",
        "Satellite Number": 1096,
        "Semi-Major Axis(m)": 6980739.136638005,
        "Time(s)": 180
    },
    {
        "Altitude(m)": 619096.2012788336,
        "Argument of Periapsis(deg)": 0.0019795997235263173,
        "Eccentricity": 0.0,
        "Inclination(deg)": 60.0,
        "Latitude(deg)": -44.45617535555085,
        "Longitude(deg)": 109.93626843873976,
        "Mean Anomaly(deg)": -53.67248323622528,
        "RAAN(deg)": 244.99201906634494,
        "Satellite Name": "Test1 1096",
        "Satellite Number": 1096,
        "Semi-Major Axis(m)": 6980739.136638005,
        "Time(s)": 190
    }
]